{"type":"FeatureCollection","crs":"GCJ-02","features":[{"type":"Feature","properties":{"name":"五华","full":"五华区","kind":"admin"},"geometry":{"type":"MultiPolygon","coordinates":[[[[102.718613,25.030441],[102.715926,25.053316],[102.715491,25.068811],[102.724471,25.077607],[102.733404,25.090532],[102.740443,25.099233],[102.74487,25.113621],[102.739858,25.124846],[102.72668,25.112788],[102.719578,25.120785],[102.739365,25.167275],[102.745307,25.189156],[102.746208,25.198906],[102.737896,25.22097],[102.738947,25.250898],[102.736351,25.275849],[102.730003,25.286514],[102.718726,25.29268],[102.700835,25.285505],[102.685237,25.288178],[102.670434,25.285018],[102.657479,25.272834],[102.641236,25.254638],[102.637345,25.239077],[102.642392,25.220154],[102.634355,25.209163],[102.618635,25.202641],[102.611161,25.208515],[102.611821,25.199631],[102.595187,25.194786],[102.575076,25.187319],[102.56115,25.18736],[102.561106,25.177804],[102.569893,25.166203],[102.570297,25.157726],[102.589893,25.115319],[102.610738,25.098706],[102.623615,25.083527],[102.63309,25.064214],[102.648186,25.044282],[102.691316,25.033603],[102.699626,25.029894],[102.718613,25.030441]]],[[[102.700026,25.374323],[102.699426,25.378336],[102.704519,25.388228],[102.705871,25.394099],[102.706443,25.410258],[102.704054,25.412779],[102.699322,25.415425],[102.69008,25.414589],[102.684038,25.408904],[102.684143,25.40308],[102.681243,25.38659],[102.676357,25.381208],[102.669399,25.376814],[102.663537,25.375918],[102.660728,25.378826],[102.659315,25.390821],[102.657001,25.393277],[102.638205,25.398208],[102.625636,25.396919],[102.621356,25.390744],[102.622798,25.377259],[102.625995,25.367422],[102.635486,25.364714],[102.64489,25.364577],[102.647985,25.361409],[102.656278,25.361381],[102.660366,25.355042],[102.655001,25.347931],[102.654895,25.337849],[102.657915,25.333408],[102.662875,25.33482],[102.671833,25.341896],[102.683525,25.35882],[102.698057,25.36545],[102.701063,25.369361],[102.700026,25.374323]]],[[[102.604653,25.309142],[102.602433,25.320586],[102.598249,25.325292],[102.591247,25.325445],[102.588833,25.314801],[102.586286,25.311066],[102.581925,25.310724],[102.578929,25.314398],[102.569463,25.310327],[102.567831,25.305514],[102.570585,25.291926],[102.569222,25.283311],[102.574763,25.27272],[102.584351,25.259621],[102.589746,25.247281],[102.594768,25.247496],[102.597438,25.250498],[102.595653,25.256505],[102.596658,25.260912],[102.603061,25.261819],[102.604067,25.265427],[102.61574,25.266643],[102.620828,25.26857],[102.630632,25.275903],[102.631669,25.282017],[102.627029,25.291147],[102.619868,25.295178],[102.614209,25.30066],[102.606228,25.305277],[102.604653,25.309142]]]]}},{"type":"Feature","properties":{"name":"盘龙","full":"盘龙区","kind":"admin","bound_note":"南界收回，不再越过人民东路以南的官渡金马/吴井"},"geometry":{"type":"MultiPolygon","coordinates":[[[[102.954552,25.249673],[102.93429,25.259359],[102.938572,25.281032],[102.941564,25.320059],[102.934517,25.334514],[102.916525,25.336288],[102.908572,25.361842],[102.93877,25.366445],[102.960375,25.37963],[102.974232,25.394597],[102.985081,25.389816],[102.97837,25.401664],[103.001293,25.418752],[103.00903,25.43051],[103.039082,25.444073],[103.025797,25.445311],[103.015668,25.442952],[103.00295,25.45471],[102.987025,25.456323],[102.979063,25.4461],[102.965686,25.43761],[102.940801,25.431691],[102.920687,25.439949],[102.912551,25.439578],[102.900292,25.434831],[102.881357,25.447802],[102.828165,25.437727],[102.806967,25.429506],[102.796186,25.423915],[102.78651,25.419183],[102.776951,25.419753],[102.78675,25.430398],[102.775993,25.429676],[102.775243,25.438153],[102.769173,25.442019],[102.754225,25.429752],[102.748959,25.414567],[102.730082,25.423013],[102.726884,25.413455],[102.713894,25.415965],[102.706443,25.410258],[102.704519,25.388228],[102.700026,25.374323],[102.713322,25.38004],[102.72415,25.380506],[102.735259,25.379673],[102.730155,25.364865],[102.721161,25.347438],[102.712435,25.346047],[102.715649,25.339402],[102.713996,25.321934],[102.707642,25.315361],[102.714431,25.310793],[102.718726,25.29268],[102.730003,25.286514],[102.736351,25.275849],[102.738947,25.250898],[102.737896,25.22097],[102.746208,25.198906],[102.745307,25.189156],[102.739365,25.167275],[102.719578,25.120785],[102.72668,25.112788],[102.739858,25.124846],[102.74487,25.113621],[102.740443,25.099233],[102.733404,25.090532],[102.724471,25.077607],[102.715491,25.068811],[102.715926,25.053316],[102.718613,25.030441],[102.7285,25.0318],[102.732,25.034],[102.734,25.0415],[102.7365,25.043],[102.7395,25.049],[102.744,25.0505],[102.7535,25.0508],[102.772,25.0508],[102.7785,25.0505],[102.7855,25.0505],[102.81,25.05],[102.831417,25.05229],[102.844621,25.079576],[102.866949,25.089385],[102.887388,25.128109],[102.89607,25.144455],[102.894136,25.170231],[102.89646,25.190444],[102.911373,25.20951],[102.926672,25.228625],[102.932141,25.247863],[102.954552,25.249673]]]]}},{"type":"Feature","properties":{"name":"官渡","full":"官渡区","kind":"admin","bound_note":"2025官渡12街道；北界按人民东路以南（金马/吴井）修正"},"geometry":{"type":"MultiPolygon","coordinates":[[[[102.718613,25.030441],[102.721916,24.994417],[102.715939,24.97035],[102.683739,24.94203],[102.663584,24.913177],[102.706533,24.878384],[102.741817,24.888389],[102.770896,24.896923],[102.784667,24.913833],[102.794374,24.925738],[102.808988,24.936244],[102.81857,24.946235],[102.822807,24.959376],[102.833735,24.975058],[102.849843,24.981807],[102.855458,24.9766],[102.864743,24.973121],[102.886664,24.974202],[102.911471,24.980218],[102.928543,24.98701],[102.947206,24.974628],[102.962559,24.970048],[102.975994,24.975412],[102.993347,24.985748],[103.005148,24.99908],[103.012825,25.018026],[103.014843,25.040524],[103.018215,25.062092],[103.024655,25.061266],[103.03573,25.070363],[103.040425,25.078684],[103.039387,25.099259],[103.047028,25.099558],[103.0476,25.121559],[103.038621,25.130492],[103.026403,25.137404],[103.021619,25.160031],[103.002579,25.176084],[102.999675,25.187943],[103.007623,25.180228],[103.026736,25.187396],[103.030694,25.202927],[103.024254,25.229125],[103.006269,25.225788],[102.991127,25.232268],[102.977372,25.245841],[102.936768,25.251066],[102.927694,25.236276],[102.922873,25.22002],[102.909047,25.200236],[102.893326,25.175637],[102.900164,25.163592],[102.893055,25.136519],[102.874528,25.100064],[102.857348,25.08399],[102.838617,25.069373],[102.831417,25.05229],[102.81,25.05],[102.7855,25.0505],[102.7785,25.0505],[102.772,25.0508],[102.7535,25.0508],[102.744,25.0505],[102.7395,25.049],[102.7365,25.043],[102.734,25.0415],[102.732,25.034],[102.7285,25.0318],[102.718613,25.030441]]]]}},{"type":"Feature","properties":{"name":"西山","full":"西山区","kind":"admin"},"geometry":{"type":"MultiPolygon","coordinates":[[[[102.561434,25.156312],[102.552095,25.140348],[102.540712,25.1402],[102.525042,25.128518],[102.516492,25.129733],[102.527719,25.148733],[102.518047,25.146446],[102.50878,25.136374],[102.509513,25.146364],[102.502235,25.155403],[102.480505,25.15125],[102.478981,25.173202],[102.471462,25.185913],[102.457482,25.185126],[102.446905,25.181235],[102.428031,25.197886],[102.409155,25.205746],[102.392211,25.208467],[102.375,25.188047],[102.365422,25.160707],[102.353077,25.144599],[102.361246,25.143033],[102.36476,25.124871],[102.368573,25.109193],[102.368393,25.092058],[102.371589,25.067698],[102.383025,25.069441],[102.396017,25.063605],[102.424703,25.06561],[102.420133,25.04382],[102.43174,25.035755],[102.4431,25.026365],[102.443998,25.016253],[102.440301,25.009115],[102.45426,24.999648],[102.467046,24.995591],[102.477257,24.999548],[102.492771,24.999394],[102.508926,24.9998],[102.512154,24.992624],[102.521854,24.978648],[102.543743,24.976902],[102.560232,24.968791],[102.574291,24.976438],[102.581196,24.968049],[102.58668,24.955158],[102.608078,24.944954],[102.614695,24.935316],[102.606922,24.930655],[102.61513,24.921083],[102.610537,24.900907],[102.6169,24.887756],[102.613793,24.877264],[102.624,24.875603],[102.607746,24.851661],[102.594427,24.839952],[102.580009,24.833195],[102.571292,24.845605],[102.553897,24.84765],[102.531837,24.861293],[102.515811,24.851301],[102.498401,24.843463],[102.481273,24.840109],[102.47652,24.831276],[102.477222,24.818286],[102.473365,24.80162],[102.476742,24.782503],[102.477818,24.769333],[102.490806,24.756541],[102.508037,24.744773],[102.526989,24.730462],[102.553611,24.735303],[102.565569,24.748582],[102.582644,24.753705],[102.612304,24.751338],[102.655721,24.75276],[102.6738,24.760126],[102.74126,24.814334],[102.733217,24.842712],[102.706533,24.878384],[102.663584,24.913177],[102.683739,24.94203],[102.715939,24.97035],[102.721916,24.994417],[102.718613,25.030441],[102.694426,25.028456],[102.690564,25.041285],[102.643784,25.05462],[102.631408,25.070206],[102.618001,25.088153],[102.602787,25.101949],[102.561434,25.156312]]],[[[102.508653,24.857588],[102.504857,24.857578],[102.497997,24.847647],[102.504349,24.848647],[102.504185,24.855628],[102.508653,24.857588]]]]}},{"type":"Feature","properties":{"name":"呈贡","full":"呈贡区","kind":"admin"},"geometry":{"type":"MultiPolygon","coordinates":[[[[102.854596,24.69481],[102.854836,24.714884],[102.844446,24.728986],[102.841648,24.74533],[102.872272,24.742872],[102.87762,24.732409],[102.886238,24.747914],[102.895728,24.750362],[102.900888,24.760145],[102.915173,24.771558],[102.911226,24.782641],[102.910236,24.795827],[102.9047,24.810985],[102.912757,24.824237],[102.910267,24.830567],[102.918553,24.857974],[102.927652,24.848879],[102.929379,24.841357],[102.932159,24.851398],[102.939868,24.856656],[102.952945,24.860409],[102.966979,24.875419],[102.973177,24.878058],[102.984147,24.879411],[103.001834,24.893941],[102.999667,24.922581],[102.994955,24.930627],[102.978175,24.920114],[102.981998,24.943545],[102.993948,24.961082],[102.986077,24.973837],[102.975994,24.975412],[102.962559,24.970048],[102.947206,24.974628],[102.928543,24.98701],[102.911471,24.980218],[102.886664,24.974202],[102.864743,24.973121],[102.855458,24.9766],[102.849843,24.981807],[102.833735,24.975058],[102.822807,24.959376],[102.81857,24.946235],[102.808988,24.936244],[102.794374,24.925738],[102.784667,24.913833],[102.770896,24.896923],[102.741817,24.888389],[102.706533,24.878384],[102.733217,24.842712],[102.74126,24.814334],[102.750951,24.789503],[102.758149,24.773278],[102.765601,24.771019],[102.759274,24.763429],[102.759619,24.751042],[102.785965,24.745859],[102.797138,24.728464],[102.82006,24.72007],[102.830345,24.721787],[102.843982,24.72009],[102.85012,24.714632],[102.841108,24.711067],[102.854596,24.69481]]]]}},{"type":"Feature","properties":{"name":"安宁","full":"安宁市","kind":"admin"},"geometry":{"type":"MultiPolygon","coordinates":[[[[102.270126,24.551477],[102.282954,24.532825],[102.303822,24.524075],[102.320749,24.511327],[102.345489,24.51948],[102.35315,24.533009],[102.361409,24.536869],[102.38082,24.550821],[102.398146,24.552721],[102.405973,24.568494],[102.408731,24.582939],[102.426576,24.592008],[102.449596,24.593211],[102.457718,24.604032],[102.464688,24.618501],[102.454609,24.644711],[102.437328,24.658964],[102.434887,24.662723],[102.445094,24.669806],[102.438765,24.67978],[102.425335,24.677605],[102.416782,24.686142],[102.435113,24.696521],[102.434394,24.704964],[102.445365,24.715364],[102.450901,24.723338],[102.448105,24.742287],[102.441027,24.751043],[102.452085,24.767011],[102.47027,24.783345],[102.473365,24.80162],[102.477222,24.818286],[102.47652,24.831276],[102.481273,24.840109],[102.498401,24.843463],[102.504857,24.857578],[102.51774,24.858384],[102.54036,24.8544],[102.562638,24.848892],[102.573359,24.838514],[102.587486,24.834534],[102.604939,24.844267],[102.623293,24.863876],[102.618866,24.87783],[102.613148,24.883744],[102.617845,24.896664],[102.609337,24.90771],[102.607748,24.925478],[102.618687,24.927217],[102.61462,24.939217],[102.597084,24.946729],[102.585092,24.963953],[102.583114,24.973874],[102.564976,24.968046],[102.552854,24.973461],[102.530599,24.970221],[102.520389,24.988203],[102.512542,24.996931],[102.500482,24.994434],[102.485119,25.000846],[102.473251,24.995141],[102.459854,25.000675],[102.439462,25.005133],[102.444117,25.010039],[102.446632,25.020427],[102.439763,25.02741],[102.424537,25.037993],[102.419804,25.049685],[102.407982,25.065727],[102.390108,25.067607],[102.377893,25.063702],[102.369833,25.071785],[102.363152,25.098477],[102.352971,25.087015],[102.351303,25.071801],[102.347322,25.062943],[102.336898,25.059439],[102.31411,25.060565],[102.301585,25.063897],[102.282713,25.045886],[102.266344,25.037907],[102.243408,25.029439],[102.231469,25.034057],[102.235408,25.048297],[102.216452,25.058509],[102.206559,25.057115],[102.203942,25.080599],[102.192586,25.082997],[102.189849,25.076532],[102.178869,25.064953],[102.173036,25.054576],[102.175892,25.043533],[102.18491,25.027151],[102.191178,25.003931],[102.200603,24.989406],[102.229551,24.997404],[102.230524,24.991514],[102.237623,24.981829],[102.248966,24.978447],[102.247257,24.968636],[102.247377,24.961467],[102.231122,24.937039],[102.225251,24.924826],[102.22829,24.907749],[102.251842,24.916731],[102.266701,24.914547],[102.260942,24.901478],[102.267436,24.882691],[102.288683,24.878399],[102.290078,24.863726],[102.291144,24.854927],[102.29793,24.846676],[102.297374,24.828789],[102.296698,24.810356],[102.286729,24.79835],[102.288289,24.779005],[102.293214,24.766235],[102.298588,24.75225],[102.295825,24.735779],[102.289384,24.707386],[102.292911,24.693978],[102.284355,24.683679],[102.287026,24.666446],[102.284698,24.651854],[102.270909,24.64689],[102.288991,24.62133],[102.292638,24.599552],[102.296045,24.571645],[102.285357,24.556576],[102.268761,24.55669],[102.270126,24.551477]]],[[[102.51774,24.858384],[102.508653,24.857588],[102.504185,24.855628],[102.504349,24.848647],[102.497997,24.847647],[102.498401,24.843463],[102.511792,24.848452],[102.515811,24.851301],[102.51774,24.858384]]]]}},{"type":"Feature","properties":{"name":"经开","full":"昆明经济技术开发区（示意）","kind":"zone"},"geometry":{"type":"Polygon","coordinates":[[[102.748,25.035],[102.775,25.042],[102.805,25.028],[102.825,25.005],[102.83,24.975],[102.81,24.96],[102.78,24.965],[102.755,24.985],[102.745,25.01],[102.748,25.035]]]}}]}